<plaintext>Orbital elements:  A11pl3Z    Perihelion 2025 Oct 29.67795 +/- 0.216 TT = 16:16:14 (JD 2460978.17795) Epoch 2025 Jul  2.0 TT = JDT 2460858.5   Earth MOID: 0.3549   Ju: 0.2479 q   1.34626730 +/- 0.0133           Ma: 0.0201   Sa: 0.4082      Find_Orb H   11.91 G 0.15                    Peri.  128.11453 +/- 0.14 z  -3.7575161799 +/- 0.0375         Node   322.06864 +/- 0.10 e   6.0586211 +/- 0.1               Incl.  175.10933 +/- 0.0044 111 of 113 observations 2025 June 14-July 2; mean residual 0".37</plaintext>